NORAD_CAT_ID,OBJECT_NAME,OBJECT_TYPE,EPOCH,MEAN_MOTION,ECCENTRICITY,INCLINATION,RA_OF_ASC_NODE,ARG_OF_PERICENTER,MEAN_ANOMALY,BSTAR,MEAN_MOTION_DOT,MEAN_MOTION_DDOT,TLE_LINE0,TLE_LINE1,TLE_LINE2,SEMIMAJOR_AXIS,PERIOD,APOGEE,PERIGEE,DECAYED
49145.0,STARLINK-3119,PAYLOAD,2024-03-17 13:48:05,14.98331316,0.0003037,69.998,275.1471,269.6722,90.4089,3.8879e-05,3.71e-06,0.0,0 STARLINK-3119,1 49145U 21082R   24077.57506795  .00000371  00000-0  38879-4 0  9990,2 49145  69.9980 275.1471 0003037 269.6722  90.4089 14.98331316138797,6950.189,96.107,574.165,569.943,0.0
49145.0,STARLINK-3119,PAYLOAD,2024-03-17 21:48:46,14.98332319,0.000303,69.9981,274.3056,268.865,91.2162,4.6982e-05,4.68e-06,0.0,0 STARLINK-3119,1 49145U 21082R   24077.90886677  .00000468  00000-0  46982-4 0  9998,2 49145  69.9981 274.3056 0003030 268.8650  91.2162 14.98332319138843,6950.186,96.107,574.157,569.945,0.0
49145.0,STARLINK-3119,PAYLOAD,2024-03-17 23:24:54,14.98332514,0.0003031,69.9981,274.1373,269.126,90.9552,4.8635e-05,4.87e-06,0.0,0 STARLINK-3119,1 49145U 21082R   24077.97562651  .00000487  00000-0  48635-4 0  9996,2 49145  69.9981 274.1373 0003031 269.1260  90.9552 14.98332514138852,6950.185,96.107,574.157,569.944,0.0
49145.0,STARLINK-3119,PAYLOAD,2024-03-18 12:13:58,14.98328903,0.0002922,69.9983,272.7913,264.3437,95.7388,8.7222e-06,1.1e-07,0.0,0 STARLINK-3119,1 49145U 21082R   24078.50970946  .00000011  00000-0  87222-5 0  9995,2 49145  69.9983 272.7913 0002922 264.3437  95.7388 14.98328903138935,6950.196,96.107,574.092,570.03,0.0
49145.0,STARLINK-3119,PAYLOAD,2024-03-18 20:14:39,14.98327199,0.0002949,69.9982,271.9494,265.5468,94.5354,-1.1725e-05,-2.33e-06,0.0,0 STARLINK-3119,1 49145U 21082R   24078.84351143 -.00000233  00000-0 -11725-4 0  9996,2 49145  69.9982 271.9494 0002949 265.5468  94.5354 14.98327199138986,6950.202,96.107,574.116,570.017,0.0
49145.0,STARLINK-3119,PAYLOAD,2024-03-18 21:50:47,14.98327499,0.0002947,69.9983,271.7811,265.7549,94.3273,-8.5349e-06,-1.95e-06,0.0,0 STARLINK-3119,1 49145U 21082R   24078.91027123 -.00000195  00000-0 -85349-5 0  9993,2 49145  69.9983 271.7811 0002947 265.7549  94.3273 14.98327499138990,6950.201,96.107,574.114,570.017,0.0
49145.0,STARLINK-3119,PAYLOAD,2024-03-19 21:52:47,14.98335997,0.0002964,69.9981,269.2556,265.5706,94.5114,4.4896e-05,4.43e-06,0.0,0 STARLINK-3119,1 49145U 21082R   24079.91166277  .00000443  00000-0  44896-4 0  9993,2 49145  69.9981 269.2556 0002964 265.5706  94.5114 14.98335997139144,6950.174,96.107,574.099,569.979,0.0
49145.0,STARLINK-3119,PAYLOAD,2024-03-20 13:54:09,14.98323971,0.0002779,69.9984,267.5716,259.3339,100.7507,3.9356e-06,-4.6e-07,0.0,0 STARLINK-3119,1 49145U 21082R   24080.57927160 -.00000046  00000-0  39356-5 0  9999,2 49145  69.9984 267.5716 0002779 259.3339 100.7507 14.98323971139249,6950.212,96.107,574.008,570.145,0.0
49145.0,STARLINK-3119,PAYLOAD,2024-03-20 20:18:41,14.98321338,0.0002857,69.9986,266.8987,261.1862,98.8974,-3.2262e-05,-4.78e-06,0.0,0 STARLINK-3119,1 49145U 21082R   24080.84631532 -.00000478  00000-0 -32262-4 0  9992,2 49145  69.9986 266.8987 0002857 261.1862  98.8974 14.98321338139286,6950.22,96.108,574.07,570.099,0.0
49145.0,STARLINK-3119,PAYLOAD,2024-03-20 21:54:49,14.9832179,0.0002909,69.9984,266.7303,265.184,94.8986,-3.1246e-05,-4.66e-06,0.0,0 STARLINK-3119,1 49145U 21082R   24080.91307550 -.00000466  00000-0 -31246-4 0  9998,2 49145  69.9984 266.7303 0002909 265.1840  94.8986 14.98321790139295,6950.218,96.108,574.105,570.061,0.0
49145.0,STARLINK-3119,PAYLOAD,2024-03-21 12:20:01,14.98330776,0.000315,69.9978,265.2144,268.5782,91.5016,1.0081e-05,2.7e-07,0.0,0 STARLINK-3119,1 49145U 21082R   24081.51390922  .00000027  00000-0  10081-4 0  9995,2 49145  69.9978 265.2144 0003150 268.5782  91.5016 14.98330776139388,6950.19,96.107,574.245,569.866,0.0
49145.0,STARLINK-3119,PAYLOAD,2024-03-21 13:56:09,14.98333347,0.0003085,69.998,265.0462,268.7474,91.3331,-1.4781e-05,-2.69e-06,0.0,0 STARLINK-3119,1 49145U 21082R   24081.58066855 -.00000269  00000-0 -14781-4 0  9998,2 49145  69.9980 265.0462 0003085 268.7474  91.3331 14.98333347139395,6950.183,96.107,574.192,569.903,0.0
49145.0,STARLINK-3119,PAYLOAD,2024-03-21 21:56:49,14.98335738,0.0003067,69.9981,264.2045,268.7237,91.357,1.8774e-05,1.31e-06,0.0,0 STARLINK-3119,1 49145U 21082R   24081.91446544  .00000131  00000-0  18774-4 0  9994,2 49145  69.9981 264.2045 0003067 268.7237  91.3570 14.98335738139448,6950.175,96.107,574.172,569.909,0.0
49145.0,STARLINK-3119,PAYLOAD,2024-03-22 12:22:05,14.98296989,0.0003228,69.9981,262.6898,269.9747,90.1042,-0.00021945,-2.708e-05,0.0,0 STARLINK-3119,1 49145U 21082R   24082.51534358 -.00002708  00000-0 -21945-3 0  9999,2 49145  69.9981 262.6898 0003228 269.9747  90.1042 14.98296989139539,6950.295,96.109,574.404,569.916,0.0
49145.0,STARLINK-3119,PAYLOAD,2024-03-22 13:58:13,14.98299766,0.0002996,69.9983,262.5214,268.3398,91.7418,-0.00018508,-2.299e-05,0.0,0 STARLINK-3119,1 49145U 21082R   24082.58210239 -.00002299  00000-0 -18508-3 0  9991,2 49145  69.9983 262.5214 0002996 268.3398  91.7418 14.98299766139549,6950.286,96.109,574.234,570.069,0.0
49145.0,STARLINK-3119,PAYLOAD,2024-03-22 20:22:43,14.98326959,0.000331,69.9982,261.848,265.527,94.5511,0.00011221,1.246e-05,0.0,0 STARLINK-3119,1 49145U 21082R   24082.84911827  .00001246  00000-0  11221-3 0  9995,2 49145  69.9982 261.8480 0003310 265.5270  94.5511 14.98326959139588,6950.202,96.107,574.368,569.767,0.0
49145.0,STARLINK-3119,PAYLOAD,2024-03-22 21:58:51,14.98328266,0.0003326,69.9982,261.6797,263.9144,96.1636,0.00012541,1.404e-05,0.0,0 STARLINK-3119,1 49145U 21082R   24082.91587723  .00001404  00000-0  12541-3 0  9999,2 49145  69.9982 261.6797 0003326 263.9144  96.1636 14.98328266139596,6950.198,96.107,574.375,569.752,0.0
49145.0,STARLINK-3119,PAYLOAD,2024-03-23 14:00:11,14.98339281,0.0003262,69.9984,259.9962,264.989,95.0897,0.00013634,1.534e-05,0.0,0 STARLINK-3119,1 49145U 21082R   24083.58347083  .00001534  00000-0  13634-3 0  9994,2 49145  69.9984 259.9962 0003262 264.9890  95.0897 14.98339281139697,6950.164,96.106,574.296,569.762,0.0
49145.0,STARLINK-3119,PAYLOAD,2024-03-23 22:00:51,14.98345854,0.0003102,69.9987,259.1552,268.5327,91.5477,0.00019794,2.27e-05,0.0,0 STARLINK-3119,1 49145U 21082R   24083.91726376  .00002270  00000-0  19794-3 0  9998,2 49145  69.9987 259.1552 0003102 268.5327  91.5477 14.98345854139749,6950.144,96.106,574.165,569.853,0.0
49145.0,STARLINK-3119,PAYLOAD,2024-03-24 12:26:04,14.98330084,0.0002964,69.9992,257.6404,265.2003,94.8817,0.00040291,4.718e-05,0.0,0 STARLINK-3119,1 49145U 21082R   24084.51810959  .00004718  00000-0  40291-3 0  9991,2 49145  69.9992 257.6404 0002964 265.2003  94.8817 14.98330084139837,6950.193,96.107,574.118,569.998,0.0
49145.0,STARLINK-3119,PAYLOAD,2024-03-24 14:02:12,14.9833233,0.0002978,69.9992,257.4721,269.7277,90.354,0.00036964,4.32e-05,0.0,0 STARLINK-3119,1 49145U 21082R   24084.58486938  .00004320  00000-0  36964-3 0  9995,2 49145  69.9992 257.4721 0002978 269.7277  90.3540 14.98332330139845,6950.186,96.107,574.12,569.981,0.0
49145.0,STARLINK-3119,PAYLOAD,2024-03-24 22:02:52,14.98339713,0.0002919,69.9993,256.6306,264.2951,95.7875,0.00046797,5.496e-05,0.0,0 STARLINK-3119,1 49145U 21082R   24084.91866383  .00005496  00000-0  46797-3 0  9998,2 49145  69.9993 256.6306 0002919 264.2951  95.7875 14.98339713139897,6950.163,96.106,574.057,569.999,0.0
49145.0,STARLINK-3119,PAYLOAD,2024-03-25 12:28:05,14.98342319,0.0002832,69.9993,255.116,268.2725,91.8109,-8.0044e-05,-1.048e-05,0.0,0 STARLINK-3119,1 49145U 21082R   24085.51950721 -.00001048  00000-0 -80044-4 0  9990,2 49145  69.9993 255.1160 0002832 268.2725  91.8109 14.98342319139989,6950.155,96.106,573.988,570.052,0.0
49145.0,STARLINK-3119,PAYLOAD,2024-03-25 20:28:45,14.98337757,0.0002951,69.9997,254.2749,266.4035,93.6787,-0.00012003,-1.525e-05,0.0,0 STARLINK-3119,1 49145U 21082R   24085.85330809 -.00001525  00000-0 -12003-3 0  9995,2 49145  69.9997 254.2749 0002951 266.4035  93.6787 14.98337757140032,6950.169,96.107,574.085,569.983,0.0
49145.0,STARLINK-3119,PAYLOAD,2024-03-26 12:30:08,14.98313935,0.0003042,69.9994,252.5902,269.0177,91.0634,-0.00032436,-3.959e-05,0.0,0 STARLINK-3119,1 49145U 21082R   24086.52092709 -.00003959  00000-0 -32436-3 0  9999,2 49145  69.9994 252.5902 0003042 269.0177  91.0634 14.98313935140135,6950.243,96.108,574.222,569.993,0.0
49145.0,STARLINK-3119,PAYLOAD,2024-03-26 14:06:16,14.98313891,0.0003035,69.9994,252.422,268.9047,91.1764,-0.00031923,-3.898e-05,0.0,0 STARLINK-3119,1 49145U 21082R   24086.58768756 -.00003898  00000-0 -31923-3 0  9999,2 49145  69.9994 252.4220 0003035 268.9047  91.1764 14.98313891140140,6950.243,96.108,574.217,569.998,0.0
49145.0,STARLINK-3119,PAYLOAD,2024-03-26 20:30:48,14.98314058,0.0003026,69.9996,251.7492,266.1351,93.9463,-0.00030257,-3.7e-05,0.0,0 STARLINK-3119,1 49145U 21082R   24086.85472936 -.00003700  00000-0 -30257-3 0  9992,2 49145  69.9996 251.7492 0003026 266.1351  93.9463 14.98314058140189,6950.242,96.108,574.21,570.004,0.0
49145.0,STARLINK-3119,PAYLOAD,2024-03-27 04:31:28,14.98328844,0.0002836,69.9997,250.9072,274.1768,85.9067,-0.00026228,-3.221e-05,0.0,0 STARLINK-3119,1 49145U 21082R   24087.18852240 -.00003221  00000-0 -26228-3 0  9990,2 49145  69.9997 250.9072 0002836 274.1768  85.9067 14.98328844140239,6950.196,96.107,574.033,570.09,0.0
49145.0,STARLINK-3119,PAYLOAD,2024-03-27 14:08:16,14.98320243,0.0003449,69.9992,249.8973,267.3268,92.7497,6.4463e-05,6.76e-06,0.0,0 STARLINK-3119,1 49145U 21082R   24087.58908018  .00000676  00000-0  64463-4 0  9992,2 49145  69.9992 249.8973 0003449 267.3268  92.7497 14.98320243140295,6950.223,96.108,574.485,569.691,0.0
49145.0,STARLINK-3119,PAYLOAD,2024-03-27 18:56:40,14.98329816,0.0003258,69.9994,249.392,266.2075,93.8712,0.00013658,1.537e-05,0.0,0 STARLINK-3119,1 49145U 21082R   24087.78935363  .00001537  00000-0  13658-3 0  9993,2 49145  69.9994 249.3920 0003258 266.2075  93.8712 14.98329816140327,6950.193,96.107,574.323,569.794,0.0
